NORAD_CAT_ID,OBJECT_NAME,OBJECT_TYPE,EPOCH,MEAN_MOTION,ECCENTRICITY,INCLINATION,RA_OF_ASC_NODE,ARG_OF_PERICENTER,MEAN_ANOMALY,BSTAR,MEAN_MOTION_DOT,MEAN_MOTION_DDOT,TLE_LINE0,TLE_LINE1,TLE_LINE2,SEMIMAJOR_AXIS,PERIOD,APOGEE,PERIGEE,DECAYED
54058.0,STARLINK-5167,PAYLOAD,2024-01-12 22:55:24,15.08832985,0.0001508,53.2168,275.9204,106.7262,253.3895,-5.6664e-05,-1.189e-05,0.0,0 STARLINK-5167,1 54058U 22136H   24012.95514002 -.00001189  00000-0 -56664-4 0  9993,2 54058  53.2168 275.9204 0001508 106.7262 253.3895 15.08832985 68071,6917.902,95.438,540.81,538.724,0.0
54058.0,STARLINK-5167,PAYLOAD,2024-01-13 00:30:47,15.08832502,0.0001442,53.2165,275.6227,101.7023,258.4131,-4.951e-05,-1.076e-05,0.0,0 STARLINK-5167,1 54058U 22136H   24013.02138078 -.00001076  00000-0 -49510-4 0  9994,2 54058  53.2165 275.6227 0001442 101.7023 258.4131 15.08832502 68565,6917.903,95.438,540.766,538.771,0.0
54058.0,STARLINK-5167,PAYLOAD,2024-01-13 22:46:10,15.08858241,0.0001476,53.2161,271.4608,96.9684,263.1476,0.00033508,5.051e-05,0.0,0 STARLINK-5167,1 54058U 22136H   24013.94873159  .00005051  00000-0  33508-3 0  9995,2 54058  53.2161 271.4608 0001476  96.9684 263.1476 15.08858241 68702,6917.825,95.436,540.711,538.669,0.0
54058.0,STARLINK-5167,PAYLOAD,2024-01-14 22:36:57,15.08846371,0.00015,53.2162,267.0006,114.799,245.3158,0.00012591,1.717e-05,0.0,0 STARLINK-5167,1 54058U 22136H   24014.94233487  .00001717  00000-0  12591-3 0  9994,2 54058  53.2162 267.0006 0001500 114.7990 245.3158 15.08846371 68376,6917.861,95.437,540.764,538.688,0.0
54058.0,STARLINK-5167,PAYLOAD,2024-01-15 00:12:21,15.08843916,0.0001317,53.2157,266.7027,98.6748,261.4393,9.1112e-05,1.163e-05,0.0,0 STARLINK-5167,1 54058U 22136H   24015.00857654  .00001163  00000-0  91112-4 0  9992,2 54058  53.2157 266.7027 0001317  98.6748 261.4393 15.08843916 68862,6917.868,95.437,540.645,538.822,0.0
54058.0,STARLINK-5167,PAYLOAD,2024-01-15 20:52:22,15.08841282,0.000142,53.2155,262.8401,87.4645,272.651,-0.00019815,-3.44e-05,0.0,0 STARLINK-5167,1 54058U 22136H   24015.86969970 -.00003440  00000-0 -19815-3 0  9992,2 54058  53.2155 262.8401 0001420  87.4645 272.6510 15.08841282 68511,6917.876,95.437,540.724,538.759,0.0
54058.0,STARLINK-5167,PAYLOAD,2024-01-16 01:38:31,15.08853133,0.0001753,53.2177,261.9455,96.4968,263.6224,-0.00014092,-2.531e-05,0.0,0 STARLINK-5167,1 54058U 22136H   24016.06841897 -.00002531  00000-0 -14092-3 0  9994,2 54058  53.2177 261.9455 0001753  96.4968 263.6224 15.08853133 69028,6917.84,95.437,540.918,538.493,0.0
54058.0,STARLINK-5167,PAYLOAD,2024-01-16 15:57:00,15.08833994,0.0001643,53.2171,259.2702,80.0221,280.0956,6.4839e-05,7.44e-06,0.0,0 STARLINK-5167,1 54058U 22136H   24016.66458541  .00000744  00000-0  64839-4 0  9997,2 54058  53.2171 259.2702 0001643  80.0221 280.0956 15.08833994 69114,6917.899,95.438,540.9,538.627,0.0
54058.0,STARLINK-5167,PAYLOAD,2024-01-16 22:18:32,15.08834636,0.0001647,53.2167,258.0808,80.6052,279.5126,6.2675e-05,7.09e-06,0.0,0 STARLINK-5167,1 54058U 22136H   24016.92954569  .00000709  00000-0  62675-4 0  9994,2 54058  53.2167 258.0808 0001647  80.6052 279.5126 15.08834636 68671,6917.897,95.438,540.901,538.622,0.0
54058.0,STARLINK-5167,PAYLOAD,2024-01-17 01:29:18,15.0884004,0.0001567,53.2169,257.4842,87.6851,272.432,0.00010243,1.343e-05,0.0,0 STARLINK-5167,1 54058U 22136H   24017.06202082  .00001343  00000-0  10243-3 0  9994,2 54058  53.2169 257.4842 0001567  87.6851 272.4320 15.08840040 69179,6917.88,95.438,540.829,538.661,0.0
54058.0,STARLINK-5167,PAYLOAD,2024-01-17 20:33:56,15.08841521,0.0001428,53.2158,253.9144,113.3348,246.7795,-1.0387e-05,-4.53e-06,0.0,0 STARLINK-5167,1 54058U 22136H   24017.85690441 -.00000453  00000-0 -10387-4 0  9994,2 54058  53.2158 253.9144 0001428 113.3348 246.7795 15.08841521 68812,6917.876,95.437,540.729,538.753,0.0
54058.0,STARLINK-5167,PAYLOAD,2024-01-18 01:20:05,15.08843826,0.0001511,53.2158,253.022,108.651,251.4647,4.5855e-05,4.42e-06,0.0,0 STARLINK-5167,1 54058U 22136H   24018.05562139  .00000442  00000-0  45855-4 0  9993,2 54058  53.2158 253.0220 0001511 108.6510 251.4647 15.08843826 68841,6917.869,95.437,540.779,538.688,0.0
54058.0,STARLINK-5167,PAYLOAD,2024-01-18 20:24:43,15.08819749,0.0001831,53.2159,249.4518,112.6861,247.4325,0.00040256,6.121e-05,0.0,0 STARLINK-5167,1 54058U 22136H   24018.85050823  .00006121  00000-0  40256-3 0  9992,2 54058  53.2159 249.4518 0001831 112.6861 247.4325 15.08819749 69442,6917.942,95.439,541.074,538.541,0.0
54058.0,STARLINK-5167,PAYLOAD,2024-01-18 22:00:06,15.08842671,0.0001555,53.2158,249.1554,111.5409,248.5749,6.5526e-05,7.55e-06,0.0,0 STARLINK-5167,1 54058U 22136H   24018.91674245  .00000755  00000-0  65526-4 0  9994,2 54058  53.2158 249.1554 0001555 111.5409 248.5749 15.08842671 68976,6917.872,95.437,540.813,538.661,0.0
54058.0,STARLINK-5167,PAYLOAD,2024-01-19 01:10:52,15.08842246,0.0001551,53.2157,248.5609,111.049,249.0669,6.0869e-05,6.81e-06,0.0,0 STARLINK-5167,1 54058U 22136H   24019.04922268  .00000681  00000-0  60869-4 0  9993,2 54058  53.2157 248.5609 0001551 111.0490 249.0669 15.08842246 69471,6917.874,95.437,540.811,538.666,0.0
54058.0,STARLINK-5167,PAYLOAD,2024-01-19 21:50:53,15.08839,0.0001487,53.2161,244.6947,109.9362,250.1791,3.4679e-05,2.64e-06,0.0,0 STARLINK-5167,1 54058U 22136H   24019.91034626  .00000264  00000-0  34679-4 0  9998,2 54058  53.2161 244.6947 0001487 109.9362 250.1791 15.08839000 69125,6917.883,95.438,540.777,538.72,0.0
54058.0,STARLINK-5167,PAYLOAD,2024-01-20 21:41:41,15.0883763,0.0001506,53.2167,240.235,105.1332,254.9827,2.0699e-06,-2.55e-06,0.0,0 STARLINK-5167,1 54058U 22136H   24020.90395025 -.00000255  00000-0  20699-5 0  9991,2 54058  53.2167 240.2350 0001506 105.1332 254.9827 15.08837630 69273,6917.888,95.438,540.794,538.711,0.0
54058.0,STARLINK-5167,PAYLOAD,2024-01-21 13:35:32,15.08836337,0.0001526,53.2168,237.2618,107.4858,252.6301,4.6421e-05,4.51e-06,0.0,0 STARLINK-5167,1 54058U 22136H   24021.56635135  .00000451  00000-0  46421-4 0  9990,2 54058  53.2168 237.2618 0001526 107.4858 252.6301 15.08836337 69856,6917.892,95.438,540.812,538.701,0.0
54058.0,STARLINK-5167,PAYLOAD,2024-01-21 21:32:28,15.0883868,0.0001421,53.2167,235.7766,97.7618,262.3535,5.8461e-05,6.43e-06,0.0,0 STARLINK-5167,1 54058U 22136H   24021.89755010  .00000643  00000-0  58461-4 0  9991,2 54058  53.2167 235.7766 0001421  97.7618 262.3535 15.08838680 69424,6917.884,95.438,540.732,538.766,0.0
54058.0,STARLINK-5167,PAYLOAD,2024-01-21 23:07:51,15.08838563,0.0001408,53.2166,235.4793,95.1939,264.9214,5.5871e-05,6.01e-06,0.0,0 STARLINK-5167,1 54058U 22136H   24021.96379046  .00000601  00000-0  55871-4 0  9996,2 54058  53.2166 235.4793 0001408  95.1939 264.9214 15.08838563 69436,6917.885,95.438,540.724,538.776,0.0
54058.0,STARLINK-5167,PAYLOAD,2024-01-22 19:47:52,15.08839548,0.0001329,53.2164,231.6136,97.3759,262.7385,5.9007e-05,6.51e-06,0.0,0 STARLINK-5167,1 54058U 22136H   24022.82491110  .00000651  00000-0  59007-4 0  9999,2 54058  53.2164 231.6136 0001329  97.3759 262.7385 15.08839548 70047,6917.882,95.438,540.666,538.827,0.0
54058.0,STARLINK-5167,PAYLOAD,2024-01-22 21:23:15,15.08839412,0.00013,53.2163,231.3163,95.0769,265.0371,5.3448e-05,5.63e-06,0.0,0 STARLINK-5167,1 54058U 22136H   24022.89115093  .00000563  00000-0  53448-4 0  9994,2 54058  53.2163 231.3163 0001300  95.0769 265.0371 15.08839412 69575,6917.882,95.438,540.647,538.848,0.0
54058.0,STARLINK-5167,PAYLOAD,2024-01-23 05:20:10,15.08844578,0.0001597,53.2151,229.8282,125.5228,234.5913,-3.6441e-05,-8.68e-06,0.0,0 STARLINK-5167,1 54058U 22136H   24023.22234841 -.00000868  00000-0 -36441-4 0  9999,2 54058  53.2151 229.8282 0001597 125.5228 234.5913 15.08844578 69621,6917.866,95.437,540.836,538.627,0.0
54058.0,STARLINK-5167,PAYLOAD,2024-01-23 21:14:02,15.08845064,0.0001259,53.2157,226.8546,91.1939,268.9197,6.6134e-05,7.65e-06,0.0,0 STARLINK-5167,1 54058U 22136H   24023.88474662  .00000765  00000-0  66134-4 0  9994,2 54058  53.2157 226.8546 0001259  91.1939 268.9197 15.08845064 69726,6917.865,95.437,540.601,538.859,0.0
54058.0,STARLINK-5167,PAYLOAD,2024-01-24 02:00:11,15.08846707,0.0001227,53.2156,225.9626,94.7542,265.3591,7.8395e-05,9.6e-06,0.0,0 STARLINK-5167,1 54058U 22136H   24024.08346470  .00000960  00000-0  78395-4 0  9991,2 54058  53.2156 225.9626 0001227  94.7542 265.3591 15.08846707 70230,6917.86,95.437,540.574,538.876,0.0
54058.0,STARLINK-5167,PAYLOAD,2024-01-24 05:10:58,15.08837,0.0001301,53.2156,225.3679,88.4029,271.7112,4.7633e-06,-2.12e-06,0.0,0 STARLINK-5167,1 54058U 22136H   24024.21595403 -.00000212  00000-0  47633-5 0  9991,2 54058  53.2156 225.3679 0001301  88.4029 271.7112 15.08837000 70253,6917.89,95.438,540.655,538.855,0.0
54058.0,STARLINK-5167,PAYLOAD,2024-01-24 13:07:54,15.08832132,0.0001351,53.2155,223.882,82.9649,277.1497,-7.4258e-05,-1.469e-05,0.0,0 STARLINK-5167,1 54058U 22136H   24024.54716191 -.00001469  00000-0 -74258-4 0  9994,2 54058  53.2155 223.8820 0001351  82.9649 277.1497 15.08832132 69823,6917.904,95.438,540.704,538.835,0.0
54058.0,STARLINK-5167,PAYLOAD,2024-01-24 19:29:27,15.08827763,0.0001273,53.2157,222.6918,94.5941,265.5196,-0.00010904,-2.022e-05,0.0,0 STARLINK-5167,1 54058U 22136H   24024.81212600 -.00002022  00000-0 -10904-3 0  9993,2 54058  53.2157 222.6918 0001273  94.5941 265.5196 15.08827763 70347,6917.918,95.438,540.663,538.902,0.0
54058.0,STARLINK-5167,PAYLOAD,2024-01-24 21:04:50,15.08827511,0.0001249,53.2158,222.3946,90.9997,269.1139,-0.00011343,-2.092e-05,0.0,0 STARLINK-5167,1 54058U 22136H   24024.87836671 -.00002092  00000-0 -11343-3 0  9994,2 54058  53.2158 222.3946 0001249  90.9997 269.1139 15.08827511 69874,6917.919,95.438,540.648,538.92,0.0
54058.0,STARLINK-5167,PAYLOAD,2024-01-24 22:40:14,15.08827109,0.0001281,53.2158,222.0971,93.4224,266.6914,-0.00011596,-2.132e-05,0.0,0 STARLINK-5167,1 54058U 22136H   24024.94460743 -.00002132  00000-0 -11596-3 0  9990,2 54058  53.2158 222.0971 0001281  93.4224 266.6914 15.08827109 69883,6917.92,95.438,540.671,538.899,0.0
